[{"OBJECT_NAME":"LAPAN-A3","OBJECT_ID":"2016-040E","EPOCH":"2026-03-09T23:01:57.724896","MEAN_MOTION":15.3238951,"ECCENTRICITY":0.00109839,"INCLINATION":97.1488,"RA_OF_ASC_NODE":68.4254,"ARG_OF_PERICENTER":22.062,"MEAN_ANOMALY":338.1093,"EPHEMERIS_TYPE":0,"CLASSIFICATION_TYPE":"U","NORAD_CAT_ID":41603,"ELEMENT_SET_NO":999,"REV_AT_EPOCH":53961,"BSTAR":0.00017567445,"MEAN_MOTION_DOT":5.428e-5,"MEAN_MOTION_DDOT":0},{"OBJECT_NAME":"STARLINK-30876","OBJECT_ID":"2023-180C","EPOCH":"2026-03-09T22:00:01.999584","MEAN_MOTION":15.27561504,"ECCENTRICITY":0.00018441,"INCLINATION":43.0029,"RA_OF_ASC_NODE":51.5147,"ARG_OF_PERICENTER":264.9735,"MEAN_ANOMALY":247.5647,"EPHEMERIS_TYPE":0,"CLASSIFICATION_TYPE":"U","NORAD_CAT_ID":58404,"ELEMENT_SET_NO":999,"REV_AT_EPOCH":578,"BSTAR":0.0014677536,"MEAN_MOTION_DOT":0.00040326,"MEAN_MOTION_DDOT":0}]
